H-2A R/B                
1 28932U 06002B   26168.51594132  .00005813  00000+0  28042-3 0  9990
2 28932  98.2567 324.3741 0049597 261.1521  98.4093 15.18063600109574
RESURS-DK 1             
1 29228U 06021A   26168.89470233  .00001805  00000+0  10744-3 0  9993
2 29228  69.9330 337.7217 0006881 291.3042  68.7389 15.13220954102689
CZ-4B R/B               
1 29507U 06046C   26168.64841823  .00003037  00000+0  15196-3 0  9995
2 29507  97.5449 213.2542 0030995 281.0330  78.7418 15.17786742 75202
CZ-2C R/B               
1 31114U 07010B   26168.83485861  .00000067  00000+0  49844-4 0  9999
2 31114  98.4100 277.1540 0058981   4.2490 355.9176 14.20276309993933
COSMO-SKYMED 1          
1 31598U 07023A   26168.93705637  .00002242  00000+0  19952-3 0  9999
2 31598  97.8848   0.7989 0001350  98.3614 261.7760 14.97102534 29900
COSMOS 2428             
1 31792U 07029A   26168.92244320 -.00000107  00000+0 -31605-4 0  9997
2 31792  70.9369 352.9338 0007123 133.5634 226.6080 14.12928047978252
SL-16 R/B               
1 31793U 07029B   26168.89773937  .00000073  00000+0  62559-4 0  9997
2 31793  70.9769 321.7341 0002341 261.7876 213.2383 14.14855304979542
KORONAS-FOTON           
1 33504U 09003A   26168.46691339  .00008536  00000+0  17544-3 0  9996
2 33504  82.4284 171.9677 0011718 146.5296 213.6696 15.45726740961149
CZ-2C R/B               
1 37731U 11030B   26168.85005079  .00001036  00000+0  13596-3 0  9999
2 37731  97.8655 124.2242 0053012  25.8486  27.7673 14.81472998804922
H-2A R/B                
1 38341U 12025E   26168.89279690  .00002308  00000+0  20958-3 0  9991
2 38341  98.4832 144.0966 0043570 347.0252  12.9842 14.95724294763196
SHIJIAN-16 (SJ-16)      
1 39358U 13057A   26168.97669738  .00000338  00000+0  35678-4 0  9998
2 39358  74.9725 355.1877 0016816 228.9082 131.0655 14.92605786686462
SL-4 R/B                
1 39679U 14021B   26168.58232912  .00009116  00000+0  19045-3 0  9995
2 39679  51.6039 208.8354 0091220 107.4106 253.6879 15.41962162671677
ALOS-2                  
1 39766U 14029A   26168.95076637  .00000633  00000+0  91674-4 0  9995
2 39766  97.9226 266.1029 0001629  89.8393 270.3005 14.79469713651697
YAOGAN-29               
1 41038U 15069A   26168.91996010  .00000647  00000+0  86057-4 0  9991
2 41038  98.0021 197.5539 0002627  53.7656 306.3800 14.83087374570733
ASTRO-H (HITOMI)        
1 41337U 16012A   26168.95937797  .00002140  00000+0  12095-3 0  9993
2 41337  30.9998  69.2000 0009796 261.4388  98.5141 15.10513870567409
HXMT (HUIYAN)           
1 42758U 17034A   26168.92369115  .00002039  00000+0  10763-3 0  9993
2 42758  43.0125 178.9399 0030670 151.9278 208.3232 15.18480457497775
SAOCOM 1A               
1 43641U 18076A   26168.94616609  .00000751  00000+0  10086-3 0  9994
2 43641  97.8877 355.6834 0001592  80.3216 279.8177 14.82150155416214
H-2A R/B                
1 43682U 18084L   26168.90534763  .00017154  00000+0  36008-3 0  9991
2 43682  98.8570  47.9519 0023448  38.2004 322.0897 15.45177480421230
SAOCOM 1B               
1 46265U 20059A   26168.97731938  .00000060  00000+0  14144-4 0  9992
2 46265  97.8880 354.8090 0001613  82.3230 277.8166 14.82146656313606
CSS (TIANHE)            
1 48274U 21035A   26168.87283177  .00020710  00000+0  24417-3 0  9992
2 48274  41.4698 317.8288 0007408  82.9062 277.2619 15.60838541293270
COSMOS 2550             
1 48865U 21056A   26168.93698449  .00006747  00000+0  21059-3 0  9993
2 48865  67.1435  97.6381 0008342 268.6108  91.4090 15.33847751278836
CZ-2C R/B               
1 52794U 22058K   26167.28244568  .00030822  00000+0  34419-3 0  9993
2 52794  50.1832 168.2256 0032542 264.2442  95.4821 15.61795532225505
CZ-2C R/B               
1 54039U 22132E   26168.53450225  .00047573  00000+0  36887-3 0  9990
2 54039  97.2897 175.5740 0016079  83.1011 277.2081 15.71527278206001
GSLV R/B                
1 54149U 22138AN  26168.85294472  .00002297  00000+0  19485-3 0  9992
2 54149  87.3807 132.7608 0022976 141.3980 218.8900 14.97260534198914
XRISM                   
1 57800U 23137A   26168.91659850  .00004046  00000+0  22132-3 0  9998
2 57800  31.0032 354.8773 0007954 331.0868  28.9330 15.12472233152971
ACS3                    
1 59588U 24077B   26168.77976005  .00037503  00000+0  27551-1 0  9997
2 59588  97.1683  87.4358 0076618  63.0470 297.8496 13.94046414108127
CZ-8A R/B               
1 66004U 25231K   26168.89052240 -.00000027  00000+0  48759-4 0  9998
2 66004  50.0058  36.3240 0116489 226.4873 132.6316 14.30155080 35046
SZ-21 MODULE            
1 66515U 25246C   26168.53256850  .00038762  00000+0  23828-3 0  9990
2 66515  41.4742 305.1743 0006303 350.6233   9.4493 15.76430582 33796
